LEGION 1                
1 59625U 24081A   26191.25143168  .00002240  00000+0  11734-3 0  9997
2 59625  97.5012 268.8636 0007735 290.4136  69.6266 15.16823700121034
LEGION 2                
1 59626U 24081B   26191.28174591  .00002404  00000+0  12568-3 0  9993
2 59626  97.5012 268.9904 0009969 252.8231 107.1911 15.16802832121042
LEGION 3                
1 60452U 24146A   26191.26148252  .00002084  00000+0  12139-3 0  9995
2 60452  45.0015 266.8334 0008645 308.2343  51.7757 15.15636351105523
LEGION 4                
1 60453U 24146B   26190.93173811  .00003144  00000+0  17329-3 0  9992
2 60453  45.0026   0.4677 0011451  78.8692 281.3474 15.16216301104328
LEGION 5                
1 62900U 25025A   26191.13073923  .00001751  00000+0  10300-3 0  9998
2 62900  44.9999 178.3764 0008563 277.1485  82.8420 15.16053585 77978
LEGION 6                
1 62901U 25025B   26191.12870336  .00002350  00000+0  13493-3 0  9993
2 62901  45.0014  87.5194 0010735 250.8009 109.1708 15.15668770 79118
